#dP2022  7  5  0  0  0.00000000      97 __u+U IGS14 FIT  IAC
## 2217 172800.00000000   900.00000000 59765 0.0000000000000
+  116   C06C07C08C09C10C11C12C13C14C16C19C20C21C22C23C24C25
+        C26C27C28C29C30C32C33C34C35C36C37C38C39C40C41C42C43
+        C44C45C46E01E02E03E04E05E07E08E09E10E11E12E13E14E15
+        E18E19E21E24E25E26E27E30E31E33E34E36G01G02G03G04G05
+        G06G07G08G09G10G11G12G13G14G15G16G17G18G19G20G21G22
+        G23G24G25G26G27G28G29G30G31G32J02J03R01R02R03R04R05
+        R07R08R09R11R12R13R14R15R17R18R19R20R21R24  0  0  0
++         7  7  7  7  7  6  6  7  6  7  6  6  5  6  6  6  5
++         5  6  5  6  6  6  6  5  6  6  6  6  7  6  6  6  5
++         6  6  6  4  4  4  4  4  4  5  4  5  4  4  5  4  4
++         4  4  4  4  4  4  4  4  4  4  4  4  3  4  3  3  4
++         3  3  3  3  3  3  3  3  3  3  4  3  3  4  4  3  3
++         3  3  3  3  3  4  3  3  4  3  9  9  6  6  6  6  6
++         6  6  6  6  6  7  6  6  6  6  7  7  6  6  0  0  0
%c M  cc GPS ccc cccc cccc cccc cccc ccccc ccccc ccccc ccccc
%c cc cc ccc ccc cccc cccc cccc cccc ccccc ccccc ccccc ccccc
%f  1.2500000  1.025000000  0.00000000000  0.000000000000000
%f  0.0000000  0.000000000  0.00000000000  0.000000000000000
%i    0    0    0    0      0      0      0      0         0
%i    0    0    0    0      0      0      0      0         0
/* INFORMATION & ANALYSIS CENTER (IAC)            FINAL DATA
/* S/V CLOCKS ARE ALIGNED TO GNSS TIME                      
/* G:C1WC2W R:C1PC2P E:C1XC5X C:C2IC6I J:C1CC2S             
/* PCV:IGS14_2215 OL/AL:FES2004  NONE     YN ORB:CoN CLK:CoN
*  2022 07 05 21  0  0.00000000
PC06 -14417.653089  38873.319925   6936.885285    332.377749
PC07   -791.011101  33240.335432  26035.814935   -390.213572
PC08 -12345.037399  20787.460697 -34589.272559    392.218869
PC09  -9893.771847  38189.891838  14523.809133   -937.270044
PC10   5112.616436  35596.592261  22669.759131    120.952951
PC11   -259.881365  23831.465645 -14488.200006    456.639377
PC12 -12470.225381  24872.821909   2299.213408   -583.873920
PC13  -6854.538244  22543.747698 -34880.400414     15.534493
PC14  11244.267611  24118.796096  -8487.735216    529.012698
PC16 -15678.576937  38709.447597   4916.405132    142.404824
PC19 -17449.599535 -21746.266295   -749.088071   -147.199342
PC20  -4620.477085 -22971.792715  15141.779253   -964.195491
PC21 -11852.272863  10459.062519 -22982.114553   -620.020934
PC22 -20718.771725  -7864.574124 -16939.770313   -962.931764
PC23  27255.549122    827.533811   5948.200549   -941.336170
PC24  -6120.908102  16499.418559  21659.725058   -968.208730
PC25  16405.449887  11554.562675  19382.072135   -711.866075
PC26 -22226.826915  12015.797539  11875.795251    713.711415
PC27  16493.912798 -19923.037838 -10516.942640    749.683903
PC28  17389.833493  -2410.781970 -21692.868342     86.587687
PC29  -8510.588199 -17145.638597  20294.130421    577.727443
PC30   5616.825689 -26623.539259   6228.608942    500.750865
PC32  11869.687966 -10471.444652  22996.845290   -973.594595
PC33  17570.230032  21685.163451    699.349293    -96.135339
PC34  -4854.321925  26501.080846  -7249.665014   -365.399332
PC35 -17088.602748   1674.808724  21978.650434    352.385325
PC36 -15636.935935 -12165.319224 -19623.496196   -972.769087
PC37  23259.380437 -10892.140256 -10870.455851   -913.897629
PC38 -20276.987065  21902.629168 -29828.651579      8.054385
PC39 -17530.375507  38170.697827  -1974.399545     34.970031
PC40  -4401.086844  29161.461184  30203.436758     -0.105654
PC41  20887.939563   8240.839280  16623.965905    -56.718612
PC42   3762.812328  22652.412198 -15831.791208   -955.261964
PC43   8087.614871  17804.870080 -19914.154688      1.254850
PC44 -15868.875838  20330.004659  10606.399734    714.606569
PC45 -27332.918801   -549.680744  -5641.347153    801.371130
PC46   4232.208716 -16424.084248 -22146.407255   -416.125380
PE01 -19839.078984   7066.192759  20805.591532   -509.496530
PE02  19689.836625  -7191.807105 -20891.439157    310.076919
PE03  12547.704136 -16855.240240  20843.771077   -575.969221
PE04   -592.460190  28911.239311  -6324.423075  -1065.037331
PE05  17354.743953   5351.447274  23381.993362   -165.715097
PE07 -11992.299040 -24102.535693 -12281.529508   -684.831335
PE08    347.057726 -28936.607459   6189.487806   -558.556150
PE09  12016.116359  24074.964350  12363.931975   -577.419742
PE10   -222.839757  18894.464513 -22800.490336   -524.330743
PE11  10155.750074  12540.528624 -24831.931611   3113.399275
PE12  -9940.409088  21927.323030 -17220.214253    -46.747369
PE13  -9436.360331 -12988.366901  24863.404753    429.659854
PE14 -13526.564750  15847.266079  15673.464938  -1787.666900
PE15  10091.568277 -21937.466236  17119.049262    735.095131
PE18  19450.767051  -5470.231307 -23061.982073  -1248.569065
PE19 -13568.698351  14360.437801 -22032.186284  -5176.450305
PE21 -28044.373808  -6568.999073   6822.372302   -744.203319
PE24  19779.286011  17835.106196  12890.598753   -708.718209
PE25  28058.237324   6782.930841  -6539.818617   -580.034752
PE26 -23712.774488   4167.438987  17217.325818  -1342.873778
PE27 -20744.449223 -17396.989757 -11965.012178   -338.028320
PE30   -181.603387 -17683.617205 -23742.271694   -648.521975
PE31   1292.781685  17894.767949  23554.313023   -499.426662
PE33 -23559.159565  17902.565366    671.198662   -454.981721
PE34  23464.982359 -18029.215544   -506.155944   -525.611163
PE36  23274.112863  -3508.770047 -17958.679665   -397.978690
PG01  -6843.032099  18125.173726 -18311.766431    327.250498
PG02  21411.740477 -15855.349538    315.064566   -651.873352
PG03   2912.758725  17170.067160 -20203.507747   -299.118340
PG04  -1571.943935  26388.774245  -1989.159171   -149.364499
PG05  12155.022666 -10406.673366  21052.114417    -88.056033
PG06  22794.933806  -3681.693885 -13137.440849    372.489747
PG07  10015.314155  12160.941542  21822.098131    320.242333
PG08  -5723.520127  23758.877507   9912.585535    -74.998406
PG09   6870.922058  24312.297599   8074.097654   -321.950320
PG10 -24041.649396 -11488.882498  -1890.471273   -481.090092
PG11  23550.469163 -12233.663742   -662.932423    -11.541058
PG12   1469.908433 -16321.214382 -21191.116497   -241.847320
PG13  12876.074132 -16555.252915  16033.092591    342.739981
PG14  23200.751566  13014.885453   -849.560385   -112.013183
PG15   3180.792208 -24337.295096   9323.135326    -47.772249
PG16 -17538.729271   4316.196191  19353.762704   -513.566652
PG17  12850.294113  11628.582282 -19678.875396    633.370585
PG18  -9267.958384 -11874.829474  21871.286966    122.087848
PG19  14840.535513   2168.624842 -22181.789669    179.821288
PG20  21578.534901  -3817.123907  14848.646000    505.658621
PG21 -14857.937724  19091.492523  -9478.619777    161.205083
PG22 -15043.896635   1195.808436 -21430.135888    287.370226
PG23 -19424.293006 -16197.266357   8285.017823    -31.558867
PG24   9293.821308 -20154.620679 -14583.174290    204.417534
PG25 -12924.113544 -18484.012714 -14525.276020    345.680546
PG26 -23803.225518  -1514.178424  11921.673561    216.514212
PG27 -12552.295544  13232.445112  18946.430275    219.796745
PG28  23282.063295   7981.811016  -9163.761582    331.102579
PG29  -4733.967827 -24546.008740   8809.206464   -530.760703
PG30  18777.058124   4640.462577  18398.718489   -533.283249
PG31 -24014.118217   5096.266625 -10843.416333   -184.580656
PG32 -14632.918628  -8439.691779 -20391.787672   -168.651233
PJ02 -28548.220500  21011.793996  27820.073222     -1.351245
PJ03 -31046.025934  28131.209194   9168.695030     -3.311025
PR01   -874.149445 -18903.365311  17099.310510     11.008559
PR02 -11704.443085 -22688.984531   -707.651820    523.308111
PR03 -15027.168921 -12187.048186 -16607.801100     59.683771
PR04  -9667.160163   4771.454726 -23088.422391    149.580646
PR05    791.485042  19144.624148 -16813.703999     95.750807
PR07  14948.314573  11407.233231  17252.731776     37.413044
PR08   9699.951050  -5046.527098  23103.749876    -66.054351
PR09  12838.888097  10112.145972  19633.865281     64.202606
PR11  22785.924217  -4222.917782 -10664.960303     34.165847
PR12   6916.169015 -10330.910474 -22240.720200     19.169183
PR13 -11371.661691 -10210.615120 -20430.952286    -24.311367
PR14 -24543.908264  -3831.686682  -5731.248190     24.984266
PR15 -22329.435976   4452.239796  11517.036379     94.842026
PR17 -12167.305749    -36.866223  22426.026651    540.923549
PR18 -16608.579901  14730.596248  12526.872295    122.591342
PR19 -13601.851088  21397.089504  -2839.938555   -195.227478
PR20   -454.565328  15900.109622 -19927.639045    -74.022589
PR21  12805.082944  -1355.781355 -22021.350922   -315.043435
PR24   -800.587362 -15688.677208  20099.735574    102.102223
EOF
